{
  "features": [
    {
      "geometry": {
        "coordinates": [
          [
            [
              75.89907214079378,
              14.505237200858742
            ],
            [
              75.89907214079378,
              14.505237200858742
            ],
            [
              75.9021930261612,
              14.503979054319556
            ],
            [
              75.9021930261612,
              14.50590174788991
            ],
            [
              75.89919374271577,
              14.50590174788991
            ],
            [
              75.89907214079378,
              14.505237200858742
            ]
          ]
        ],
        "type": "Polygon"
      },
      "properties": {
        "color": "#8a8f98",
        "land_class": "Urban",
        "location": "Selected Area"
      },
      "type": "Feature"
    },
    {
      "geometry": {
        "coordinates": [
          [
            [
              75.89919374271577,
              14.50590174788991
            ],
            [
              75.9021930261612,
              14.50590174788991
            ],
            [
              75.9021930261612,
              14.508394556746529
            ],
            [
              75.89964988853227,
              14.508394556746529
            ],
            [
              75.89919374271577,
              14.50590174788991
            ]
          ]
        ],
        "type": "Polygon"
      },
      "properties": {
        "color": "#8a8f98",
        "land_class": "Urban",
        "location": "Selected Area"
      },
      "type": "Feature"
    },
    {
      "geometry": {
        "coordinates": [
          [
            [
              75.89964988853227,
              14.508394556746529
            ],
            [
              75.9021930261612,
              14.508394556746529
            ],
            [
              75.9021930261612,
              14.510887365603148
            ],
            [
              75.90010603434875,
              14.510887365603148
            ],
            [
              75.89964988853227,
              14.508394556746529
            ]
          ]
        ],
        "type": "Polygon"
      },
      "properties": {
        "color": "#a9714b",
        "land_class": "Barren Land",
        "location": "Selected Area"
      },
      "type": "Feature"
    },
    {
      "geometry": {
        "coordinates": [
          [
            [
              75.90010603434875,
              14.510887365603148
            ],
            [
              75.9021930261612,
              14.510887365603148
            ],
            [
              75.9021930261612,
              14.513380174459767
            ],
            [
              75.90056218016524,
              14.513380174459767
            ],
            [
              75.90010603434875,
              14.510887365603148
            ]
          ]
        ],
        "type": "Polygon"
      },
      "properties": {
        "color": "#a9714b",
        "land_class": "Barren Land",
        "location": "Selected Area"
      },
      "type": "Feature"
    },
    {
      "geometry": {
        "coordinates": [
          [
            [
              75.90056218016524,
              14.513380174459767
            ],
            [
              75.9021930261612,
              14.513380174459767
            ],
            [
              75.9021930261612,
              14.515872983316386
            ],
            [
              75.90101832598174,
              14.515872983316386
            ],
            [
              75.90056218016524,
              14.513380174459767
            ]
          ]
        ],
        "type": "Polygon"
      },
      "properties": {
        "color": "#c8a33d",
        "land_class": "Agriculture",
        "location": "Selected Area"
      },
      "type": "Feature"
    },
    {
      "geometry": {
        "coordinates": [
          [
            [
              75.90101832598174,
              14.515872983316386
            ],
            [
              75.9021930261612,
              14.515872983316386
            ],
            [
              75.9021930261612,
              14.518286414030914
            ],
            [
              75.90147447179822,
              14.518365792173006
            ],
            [
              75.90147447179822,
              14.518365792173006
            ],
            [
              75.90101832598174,
              14.515872983316386
            ]
          ]
        ],
        "type": "Polygon"
      },
      "properties": {
        "color": "#7fae56",
        "land_class": "Rangeland",
        "location": "Selected Area"
      },
      "type": "Feature"
    },
    {
      "geometry": {
        "coordinates": [
          [
            [
              75.90531391152862,
              14.502720907780368
            ],
            [
              75.90531391152862,
              14.50340893903329
            ],
            [
              75.9036072210894,
              14.50340893903329
            ],
            [
              75.90531391152862,
              14.502720907780368
            ]
          ]
        ],
        "type": "Polygon"
      },
      "properties": {
        "color": "#8a8f98",
        "land_class": "Urban",
        "location": "Selected Area"
      },
      "type": "Feature"
    },
    {
      "geometry": {
        "coordinates": [
          [
            [
              75.9021930261612,
              14.503979054319556
            ],
            [
              75.9036072210894,
              14.50340893903329
            ],
            [
              75.90531391152862,
              14.50340893903329
            ],
            [
              75.90531391152862,
              14.50590174788991
            ],
            [
              75.9021930261612,
              14.50590174788991
            ],
            [
              75.9021930261612,
              14.503979054319556
            ]
          ]
        ],
        "type": "Polygon"
      },
      "properties": {
        "color": "#2b7fd6",
        "land_class": "Water",
        "location": "Selected Area"
      },
      "type": "Feature"
    },
    {
      "geometry": {
        "coordinates": [
          [
            [
              75.9021930261612,
              14.50590174788991
            ],
            [
              75.90531391152862,
              14.50590174788991
            ],
            [
              75.90531391152862,
              14.508394556746529
            ],
            [
              75.9021930261612,
              14.508394556746529
            ],
            [
              75.9021930261612,
              14.50590174788991
            ]
          ]
        ],
        "type": "Polygon"
      },
      "properties": {
        "color": "#2b7fd6",
        "land_class": "Water",
        "location": "Selected Area"
      },
      "type": "Feature"
    },
    {
      "geometry": {
        "coordinates": [
          [
            [
              75.9021930261612,
              14.508394556746529
            ],
            [
              75.90531391152862,
              14.508394556746529
            ],
            [
              75.90531391152862,
              14.510887365603148
            ],
            [
              75.9021930261612,
              14.510887365603148
            ],
            [
              75.9021930261612,
              14.508394556746529
            ]
          ]
        ],
        "type": "Polygon"
      },
      "properties": {
        "color": "#8a8f98",
        "land_class": "Urban",
        "location": "Selected Area"
      },
      "type": "Feature"
    },
    {
      "geometry": {
        "coordinates": [
          [
            [
              75.9021930261612,
              14.510887365603148
            ],
            [
              75.90531391152862,
              14.510887365603148
            ],
            [
              75.90531391152862,
              14.513380174459767
            ],
            [
              75.9021930261612,
              14.513380174459767
            ],
            [
              75.9021930261612,
              14.510887365603148
            ]
          ]
        ],
        "type": "Polygon"
      },
      "properties": {
        "color": "#c8a33d",
        "land_class": "Agriculture",
        "location": "Selected Area"
      },
      "type": "Feature"
    },
    {
      "geometry": {
        "coordinates": [
          [
            [
              75.9021930261612,
              14.513380174459767
            ],
            [
              75.90531391152862,
              14.513380174459767
            ],
            [
              75.90531391152862,
              14.515872983316386
            ],
            [
              75.9021930261612,
              14.515872983316386
            ],
            [
              75.9021930261612,
              14.513380174459767
            ]
          ]
        ],
        "type": "Polygon"
      },
      "properties": {
        "color": "#7fae56",
        "land_class": "Rangeland",
        "location": "Selected Area"
      },
      "type": "Feature"
    },
    {
      "geometry": {
        "coordinates": [
          [
            [
              75.9021930261612,
              14.518286414030914
            ],
            [
              75.9021930261612,
              14.515872983316386
            ],
            [
              75.90531391152862,
              14.515872983316386
            ],
            [
              75.90531391152862,
              14.517941652249602
            ],
            [
              75.9021930261612,
              14.518286414030914
            ]
          ]
        ],
        "type": "Polygon"
      },
      "properties": {
        "color": "#7fae56",
        "land_class": "Rangeland",
        "location": "Selected Area"
      },
      "type": "Feature"
    },
    {
      "geometry": {
        "coordinates": [
          [
            [
              75.90531391152864,
              14.502720907780363
            ],
            [
              75.90843479689607,
              14.501462761241172
            ],
            [
              75.90843479689607,
              14.50340893903329
            ],
            [
              75.90531391152864,
              14.50340893903329
            ],
            [
              75.90531391152864,
              14.502720907780363
            ]
          ]
        ],
        "type": "Polygon"
      },
      "properties": {
        "color": "#8a8f98",
        "land_class": "Urban",
        "location": "Selected Area"
      },
      "type": "Feature"
    },
    {
      "geometry": {
        "coordinates": [
          [
            [
              75.90531391152864,
              14.50340893903329
            ],
            [
              75.90843479689607,
              14.50340893903329
            ],
            [
              75.90843479689607,
              14.50590174788991
            ],
            [
              75.90531391152864,
              14.50590174788991
            ],
            [
              75.90531391152864,
              14.50340893903329
            ]
          ]
        ],
        "type": "Polygon"
      },
      "properties": {
        "color": "#8a8f98",
        "land_class": "Urban",
        "location": "Selected Area"
      },
      "type": "Feature"
    },
    {
      "geometry": {
        "coordinates": [
          [
            [
              75.90531391152864,
              14.50590174788991
            ],
            [
              75.90843479689607,
              14.50590174788991
            ],
            [
              75.90843479689607,
              14.508394556746529
            ],
            [
              75.90531391152864,
              14.508394556746529
            ],
            [
              75.90531391152864,
              14.50590174788991
            ]
          ]
        ],
        "type": "Polygon"
      },
      "properties": {
        "color": "#c8a33d",
        "land_class": "Agriculture",
        "location": "Selected Area"
      },
      "type": "Feature"
    },
    {
      "geometry": {
        "coordinates": [
          [
            [
              75.90531391152864,
              14.508394556746529
            ],
            [
              75.90843479689607,
              14.508394556746529
            ],
            [
              75.90843479689607,
              14.510887365603148
            ],
            [
              75.90531391152864,
              14.510887365603148
            ],
            [
              75.90531391152864,
              14.508394556746529
            ]
          ]
        ],
        "type": "Polygon"
      },
      "properties": {
        "color": "#2b7fd6",
        "land_class": "Water",
        "location": "Selected Area"
      },
      "type": "Feature"
    },
    {
      "geometry": {
        "coordinates": [
          [
            [
              75.90531391152864,
              14.510887365603148
            ],
            [
              75.90843479689607,
              14.510887365603148
            ],
            [
              75.90843479689607,
              14.513380174459767
            ],
            [
              75.90531391152864,
              14.513380174459767
            ],
            [
              75.90531391152864,
              14.510887365603148
            ]
          ]
        ],
        "type": "Polygon"
      },
      "properties": {
        "color": "#2b7fd6",
        "land_class": "Water",
        "location": "Selected Area"
      },
      "type": "Feature"
    },
    {
      "geometry": {
        "coordinates": [
          [
            [
              75.90531391152864,
              14.513380174459767
            ],
            [
              75.90843479689607,
              14.513380174459767
            ],
            [
              75.90843479689607,
              14.515872983316386
            ],
            [
              75.90531391152864,
              14.515872983316386
            ],
            [
              75.90531391152864,
              14.513380174459767
            ]
          ]
        ],
        "type": "Polygon"
      },
      "properties": {
        "color": "#1b7a3d",
        "land_class": "Forest",
        "location": "Selected Area"
      },
      "type": "Feature"
    },
    {
      "geometry": {
        "coordinates": [
          [
            [
              75.90531391152864,
              14.5179416522496
            ],
            [
              75.90531391152864,
              14.515872983316386
            ],
            [
              75.90843479689607,
              14.515872983316386
            ],
            [
              75.90843479689607,
              14.517596890468289
            ],
            [
              75.90531391152864,
              14.5179416522496
            ]
          ]
        ],
        "type": "Polygon"
      },
      "properties": {
        "color": "#8a8f98",
        "land_class": "Urban",
        "location": "Selected Area"
      },
      "type": "Feature"
    },
    {
      "geometry": {
        "coordinates": [
          [
            [
              75.9115556822635,
              14.500204614701984
            ],
            [
              75.9115556822635,
              14.500916130176671
            ],
            [
              75.9097907382252,
              14.500916130176671
            ],
            [
              75.9115556822635,
              14.500204614701984
            ]
          ]
        ],
        "type": "Polygon"
      },
      "properties": {
        "color": "#1b7a3d",
        "land_class": "Forest",
        "location": "Selected Area"
      },
      "type": "Feature"
    },
    {
      "geometry": {
        "coordinates": [
          [
            [
              75.90843479689607,
              14.501462761241172
            ],
            [
              75.9097907382252,
              14.500916130176671
            ],
            [
              75.9115556822635,
              14.500916130176671
            ],
            [
              75.9115556822635,
              14.50340893903329
            ],
            [
              75.90843479689607,
              14.50340893903329
            ],
            [
              75.90843479689607,
              14.501462761241172
            ]
          ]
        ],
        "type": "Polygon"
      },
      "properties": {
        "color": "#7fae56",
        "land_class": "Rangeland",
        "location": "Selected Area"
      },
      "type": "Feature"
    },
    {
      "geometry": {
        "coordinates": [
          [
            [
              75.90843479689607,
              14.50340893903329
            ],
            [
              75.9115556822635,
              14.50340893903329
            ],
            [
              75.9115556822635,
              14.50590174788991
            ],
            [
              75.90843479689607,
              14.50590174788991
            ],
            [
              75.90843479689607,
              14.50340893903329
            ]
          ]
        ],
        "type": "Polygon"
      },
      "properties": {
        "color": "#8a8f98",
        "land_class": "Urban",
        "location": "Selected Area"
      },
      "type": "Feature"
    },
    {
      "geometry": {
        "coordinates": [
          [
            [
              75.90843479689607,
              14.50590174788991
            ],
            [
              75.9115556822635,
              14.50590174788991
            ],
            [
              75.9115556822635,
              14.508394556746529
            ],
            [
              75.90843479689607,
              14.508394556746529
            ],
            [
              75.90843479689607,
              14.50590174788991
            ]
          ]
        ],
        "type": "Polygon"
      },
      "properties": {
        "color": "#c8a33d",
        "land_class": "Agriculture",
        "location": "Selected Area"
      },
      "type": "Feature"
    },
    {
      "geometry": {
        "coordinates": [
          [
            [
              75.90843479689607,
              14.508394556746529
            ],
            [
              75.9115556822635,
              14.508394556746529
            ],
            [
              75.9115556822635,
              14.510887365603148
            ],
            [
              75.90843479689607,
              14.510887365603148
            ],
            [
              75.90843479689607,
              14.508394556746529
            ]
          ]
        ],
        "type": "Polygon"
      },
      "properties": {
        "color": "#2b7fd6",
        "land_class": "Water",
        "location": "Selected Area"
      },
      "type": "Feature"
    },
    {
      "geometry": {
        "coordinates": [
          [
            [
              75.90843479689607,
              14.510887365603148
            ],
            [
              75.9115556822635,
              14.510887365603148
            ],
            [
              75.9115556822635,
              14.513380174459767
            ],
            [
              75.90843479689607,
              14.513380174459767
            ],
            [
              75.90843479689607,
              14.510887365603148
            ]
          ]
        ],
        "type": "Polygon"
      },
      "properties": {
        "color": "#8a8f98",
        "land_class": "Urban",
        "location": "Selected Area"
      },
      "type": "Feature"
    },
    {
      "geometry": {
        "coordinates": [
          [
            [
              75.90843479689607,
              14.513380174459767
            ],
            [
              75.9115556822635,
              14.513380174459767
            ],
            [
              75.9115556822635,
              14.515872983316386
            ],
            [
              75.90843479689607,
              14.515872983316386
            ],
            [
              75.90843479689607,
              14.513380174459767
            ]
          ]
        ],
        "type": "Polygon"
      },
      "properties": {
        "color": "#7fae56",
        "land_class": "Rangeland",
        "location": "Selected Area"
      },
      "type": "Feature"
    },
    {
      "geometry": {
        "coordinates": [
          [
            [
              75.90843479689607,
              14.517596890468289
            ],
            [
              75.90843479689607,
              14.515872983316386
            ],
            [
              75.9115556822635,
              14.515872983316386
            ],
            [
              75.9115556822635,
              14.517252128686977
            ],
            [
              75.90843479689607,
              14.517596890468289
            ]
          ]
        ],
        "type": "Polygon"
      },
      "properties": {
        "color": "#2b7fd6",
        "land_class": "Water",
        "location": "Selected Area"
      },
      "type": "Feature"
    },
    {
      "geometry": {
        "coordinates": [
          [
            [
              75.9115556822635,
              14.500204614701984
            ],
            [
              75.91467656763092,
              14.498946468162798
            ],
            [
              75.91467656763092,
              14.500916130176671
            ],
            [
              75.9115556822635,
              14.500916130176671
            ],
            [
              75.9115556822635,
              14.500204614701984
            ]
          ]
        ],
        "type": "Polygon"
      },
      "properties": {
        "color": "#7fae56",
        "land_class": "Rangeland",
        "location": "Selected Area"
      },
      "type": "Feature"
    },
    {
      "geometry": {
        "coordinates": [
          [
            [
              75.9115556822635,
              14.500916130176671
            ],
            [
              75.91467656763092,
              14.500916130176671
            ],
            [
              75.91467656763092,
              14.50340893903329
            ],
            [
              75.9115556822635,
              14.50340893903329
            ],
            [
              75.9115556822635,
              14.500916130176671
            ]
          ]
        ],
        "type": "Polygon"
      },
      "properties": {
        "color": "#c8a33d",
        "land_class": "Agriculture",
        "location": "Selected Area"
      },
      "type": "Feature"
    },
    {
      "geometry": {
        "coordinates": [
          [
            [
              75.9115556822635,
              14.50340893903329
            ],
            [
              75.91467656763092,
              14.50340893903329
            ],
            [
              75.91467656763092,
              14.50590174788991
            ],
            [
              75.9115556822635,
              14.50590174788991
            ],
            [
              75.9115556822635,
              14.50340893903329
            ]
          ]
        ],
        "type": "Polygon"
      },
      "properties": {
        "color": "#1b7a3d",
        "land_class": "Forest",
        "location": "Selected Area"
      },
      "type": "Feature"
    },
    {
      "geometry": {
        "coordinates": [
          [
            [
              75.9115556822635,
              14.50590174788991
            ],
            [
              75.91467656763092,
              14.50590174788991
            ],
            [
              75.91467656763092,
              14.508394556746529
            ],
            [
              75.9115556822635,
              14.508394556746529
            ],
            [
              75.9115556822635,
              14.50590174788991
            ]
          ]
        ],
        "type": "Polygon"
      },
      "properties": {
        "color": "#2b7fd6",
        "land_class": "Water",
        "location": "Selected Area"
      },
      "type": "Feature"
    },
    {
      "geometry": {
        "coordinates": [
          [
            [
              75.9115556822635,
              14.508394556746529
            ],
            [
              75.91467656763092,
              14.508394556746529
            ],
            [
              75.91467656763092,
              14.510887365603148
            ],
            [
              75.9115556822635,
              14.510887365603148
            ],
            [
              75.9115556822635,
              14.508394556746529
            ]
          ]
        ],
        "type": "Polygon"
      },
      "properties": {
        "color": "#2b7fd6",
        "land_class": "Water",
        "location": "Selected Area"
      },
      "type": "Feature"
    },
    {
      "geometry": {
        "coordinates": [
          [
            [
              75.9115556822635,
              14.510887365603148
            ],
            [
              75.91467656763092,
              14.510887365603148
            ],
            [
              75.91467656763092,
              14.513380174459767
            ],
            [
              75.9115556822635,
              14.513380174459767
            ],
            [
              75.9115556822635,
              14.510887365603148
            ]
          ]
        ],
        "type": "Polygon"
      },
      "properties": {
        "color": "#8a8f98",
        "land_class": "Urban",
        "location": "Selected Area"
      },
      "type": "Feature"
    },
    {
      "geometry": {
        "coordinates": [
          [
            [
              75.9115556822635,
              14.513380174459767
            ],
            [
              75.91467656763092,
              14.513380174459767
            ],
            [
              75.91467656763092,
              14.515872983316386
            ],
            [
              75.9115556822635,
              14.515872983316386
            ],
            [
              75.9115556822635,
              14.513380174459767
            ]
          ]
        ],
        "type": "Polygon"
      },
      "properties": {
        "color": "#7fae56",
        "land_class": "Rangeland",
        "location": "Selected Area"
      },
      "type": "Feature"
    },
    {
      "geometry": {
        "coordinates": [
          [
            [
              75.9115556822635,
              14.517252128686977
            ],
            [
              75.9115556822635,
              14.515872983316386
            ],
            [
              75.91467656763092,
              14.515872983316386
            ],
            [
              75.91467656763092,
              14.516907366905665
            ],
            [
              75.9115556822635,
              14.517252128686977
            ]
          ]
        ],
        "type": "Polygon"
      },
      "properties": {
        "color": "#2b7fd6",
        "land_class": "Water",
        "location": "Selected Area"
      },
      "type": "Feature"
    },
    {
      "geometry": {
        "coordinates": [
          [
            [
              75.91467656763092,
              14.498946468162798
            ],
            [
              75.915974255361,
              14.498423321320052
            ],
            [
              75.915974255361,
              14.498423321320052
            ],
            [
              75.91712638721313,
              14.500916130176671
            ],
            [
              75.91467656763092,
              14.500916130176671
            ],
            [
              75.91467656763092,
              14.498946468162798
            ]
          ]
        ],
        "type": "Polygon"
      },
      "properties": {
        "color": "#7fae56",
        "land_class": "Rangeland",
        "location": "Selected Area"
      },
      "type": "Feature"
    },
    {
      "geometry": {
        "coordinates": [
          [
            [
              75.91467656763092,
              14.500916130176671
            ],
            [
              75.91712638721313,
              14.500916130176671
            ],
            [
              75.91779745299834,
              14.50236808094918
            ],
            [
              75.91779745299834,
              14.50340893903329
            ],
            [
              75.91467656763092,
              14.50340893903329
            ],
            [
              75.91467656763092,
              14.500916130176671
            ]
          ]
        ],
        "type": "Polygon"
      },
      "properties": {
        "color": "#2b7fd6",
        "land_class": "Water",
        "location": "Selected Area"
      },
      "type": "Feature"
    },
    {
      "geometry": {
        "coordinates": [
          [
            [
              75.91467656763092,
              14.50340893903329
            ],
            [
              75.91779745299834,
              14.50340893903329
            ],
            [
              75.91779745299834,
              14.50590174788991
            ],
            [
              75.91467656763092,
              14.50590174788991
            ],
            [
              75.91467656763092,
              14.50340893903329
            ]
          ]
        ],
        "type": "Polygon"
      },
      "properties": {
        "color": "#7fae56",
        "land_class": "Rangeland",
        "location": "Selected Area"
      },
      "type": "Feature"
    },
    {
      "geometry": {
        "coordinates": [
          [
            [
              75.91467656763092,
              14.50590174788991
            ],
            [
              75.91779745299834,
              14.50590174788991
            ],
            [
              75.91779745299834,
              14.508394556746529
            ],
            [
              75.91467656763092,
              14.508394556746529
            ],
            [
              75.91467656763092,
              14.50590174788991
            ]
          ]
        ],
        "type": "Polygon"
      },
      "properties": {
        "color": "#8a8f98",
        "land_class": "Urban",
        "location": "Selected Area"
      },
      "type": "Feature"
    },
    {
      "geometry": {
        "coordinates": [
          [
            [
              75.91467656763092,
              14.508394556746529
            ],
            [
              75.91779745299834,
              14.508394556746529
            ],
            [
              75.91779745299834,
              14.510887365603148
            ],
            [
              75.91467656763092,
              14.510887365603148
            ],
            [
              75.91467656763092,
              14.508394556746529
            ]
          ]
        ],
        "type": "Polygon"
      },
      "properties": {
        "color": "#1b7a3d",
        "land_class": "Forest",
        "location": "Selected Area"
      },
      "type": "Feature"
    },
    {
      "geometry": {
        "coordinates": [
          [
            [
              75.91467656763092,
              14.510887365603148
            ],
            [
              75.91779745299834,
              14.510887365603148
            ],
            [
              75.91779745299834,
              14.513380174459767
            ],
            [
              75.91467656763092,
              14.513380174459767
            ],
            [
              75.91467656763092,
              14.510887365603148
            ]
          ]
        ],
        "type": "Polygon"
      },
      "properties": {
        "color": "#8a8f98",
        "land_class": "Urban",
        "location": "Selected Area"
      },
      "type": "Feature"
    },
    {
      "geometry": {
        "coordinates": [
          [
            [
              75.91467656763092,
              14.513380174459767
            ],
            [
              75.91779745299834,
              14.513380174459767
            ],
            [
              75.91779745299834,
              14.515872983316386
            ],
            [
              75.91467656763092,
              14.515872983316386
            ],
            [
              75.91467656763092,
              14.513380174459767
            ]
          ]
        ],
        "type": "Polygon"
      },
      "properties": {
        "color": "#7fae56",
        "land_class": "Rangeland",
        "location": "Selected Area"
      },
      "type": "Feature"
    },
    {
      "geometry": {
        "coordinates": [
          [
            [
              75.91467656763092,
              14.516907366905665
            ],
            [
              75.91467656763092,
              14.515872983316386
            ],
            [
              75.91779745299834,
              14.515872983316386
            ],
            [
              75.91779745299834,
              14.516562605124355
            ],
            [
              75.91467656763092,
              14.516907366905665
            ]
          ]
        ],
        "type": "Polygon"
      },
      "properties": {
        "color": "#8a8f98",
        "land_class": "Urban",
        "location": "Selected Area"
      },
      "type": "Feature"
    },
    {
      "geometry": {
        "coordinates": [
          [
            [
              75.91779745299836,
              14.50236808094921
            ],
            [
              75.91827851906527,
              14.50340893903329
            ],
            [
              75.91779745299836,
              14.50340893903329
            ],
            [
              75.91779745299836,
              14.50236808094921
            ]
          ]
        ],
        "type": "Polygon"
      },
      "properties": {
        "color": "#1b7a3d",
        "land_class": "Forest",
        "location": "Selected Area"
      },
      "type": "Feature"
    },
    {
      "geometry": {
        "coordinates": [
          [
            [
              75.91779745299836,
              14.50340893903329
            ],
            [
              75.91827851906527,
              14.50340893903329
            ],
            [
              75.9194306509174,
              14.50590174788991
            ],
            [
              75.91779745299836,
              14.50590174788991
            ],
            [
              75.91779745299836,
              14.50340893903329
            ]
          ]
        ],
        "type": "Polygon"
      },
      "properties": {
        "color": "#2b7fd6",
        "land_class": "Water",
        "location": "Selected Area"
      },
      "type": "Feature"
    },
    {
      "geometry": {
        "coordinates": [
          [
            [
              75.91779745299836,
              14.50590174788991
            ],
            [
              75.9194306509174,
              14.50590174788991
            ],
            [
              75.92058278276956,
              14.508394556746529
            ],
            [
              75.91779745299836,
              14.508394556746529
            ],
            [
              75.91779745299836,
              14.50590174788991
            ]
          ]
        ],
        "type": "Polygon"
      },
      "properties": {
        "color": "#2b7fd6",
        "land_class": "Water",
        "location": "Selected Area"
      },
      "type": "Feature"
    },
    {
      "geometry": {
        "coordinates": [
          [
            [
              75.91779745299836,
              14.508394556746529
            ],
            [
              75.92058278276956,
              14.508394556746529
            ],
            [
              75.9209183383658,
              14.509120581255486
            ],
            [
              75.9209183383658,
              14.510887365603148
            ],
            [
              75.91779745299836,
              14.510887365603148
            ],
            [
              75.91779745299836,
              14.508394556746529
            ]
          ]
        ],
        "type": "Polygon"
      },
      "properties": {
        "color": "#7fae56",
        "land_class": "Rangeland",
        "location": "Selected Area"
      },
      "type": "Feature"
    },
    {
      "geometry": {
        "coordinates": [
          [
            [
              75.91779745299836,
              14.510887365603148
            ],
            [
              75.9209183383658,
              14.510887365603148
            ],
            [
              75.9209183383658,
              14.513380174459767
            ],
            [
              75.91779745299836,
              14.513380174459767
            ],
            [
              75.91779745299836,
              14.510887365603148
            ]
          ]
        ],
        "type": "Polygon"
      },
      "properties": {
        "color": "#c8a33d",
        "land_class": "Agriculture",
        "location": "Selected Area"
      },
      "type": "Feature"
    },
    {
      "geometry": {
        "coordinates": [
          [
            [
              75.91779745299836,
              14.513380174459767
            ],
            [
              75.9209183383658,
              14.513380174459767
            ],
            [
              75.9209183383658,
              14.515872983316386
            ],
            [
              75.91779745299836,
              14.515872983316386
            ],
            [
              75.91779745299836,
              14.513380174459767
            ]
          ]
        ],
        "type": "Polygon"
      },
      "properties": {
        "color": "#8a8f98",
        "land_class": "Urban",
        "location": "Selected Area"
      },
      "type": "Feature"
    },
    {
      "geometry": {
        "coordinates": [
          [
            [
              75.91779745299836,
              14.516562605124353
            ],
            [
              75.91779745299836,
              14.515872983316386
            ],
            [
              75.9209183383658,
              14.515872983316386
            ],
            [
              75.9209183383658,
              14.51621784334304
            ],
            [
              75.91779745299836,
              14.516562605124353
            ]
          ]
        ],
        "type": "Polygon"
      },
      "properties": {
        "color": "#8a8f98",
        "land_class": "Urban",
        "location": "Selected Area"
      },
      "type": "Feature"
    },
    {
      "geometry": {
        "coordinates": [
          [
            [
              75.9209183383658,
              14.509120581255486
            ],
            [
              75.9217349146217,
              14.510887365603148
            ],
            [
              75.9209183383658,
              14.510887365603148
            ],
            [
              75.9209183383658,
              14.509120581255486
            ]
          ]
        ],
        "type": "Polygon"
      },
      "properties": {
        "color": "#8a8f98",
        "land_class": "Urban",
        "location": "Selected Area"
      },
      "type": "Feature"
    },
    {
      "geometry": {
        "coordinates": [
          [
            [
              75.9209183383658,
              14.510887365603148
            ],
            [
              75.9217349146217,
              14.510887365603148
            ],
            [
              75.92288704647383,
              14.513380174459767
            ],
            [
              75.9209183383658,
              14.513380174459767
            ],
            [
              75.9209183383658,
              14.510887365603148
            ]
          ]
        ],
        "type": "Polygon"
      },
      "properties": {
        "color": "#2b7fd6",
        "land_class": "Water",
        "location": "Selected Area"
      },
      "type": "Feature"
    },
    {
      "geometry": {
        "coordinates": [
          [
            [
              75.9209183383658,
              14.513380174459767
            ],
            [
              75.92288704647383,
              14.513380174459767
            ],
            [
              75.92403917832597,
              14.515872983316386
            ],
            [
              75.9209183383658,
              14.515872983316386
            ],
            [
              75.9209183383658,
              14.513380174459767
            ]
          ]
        ],
        "type": "Polygon"
      },
      "properties": {
        "color": "#8a8f98",
        "land_class": "Urban",
        "location": "Selected Area"
      },
      "type": "Feature"
    },
    {
      "geometry": {
        "coordinates": [
          [
            [
              75.9209183383658,
              14.51621784334304
            ],
            [
              75.9209183383658,
              14.515872983316386
            ],
            [
              75.92403917832597,
              14.515872983316386
            ],
            [
              75.92403922373322,
              14.515873081561729
            ],
            [
              75.92403922373322,
              14.515873081561729
            ],
            [
              75.9209183383658,
              14.51621784334304
            ]
          ]
        ],
        "type": "Polygon"
      },
      "properties": {
        "color": "#1b7a3d",
        "land_class": "Forest",
        "location": "Selected Area"
      },
      "type": "Feature"
    }
  ],
  "type": "FeatureCollection"
}